[
  {
    "OBJECT_NAME": "STARLINK-2235",
    "OBJECT_ID": "21041AE",
    "EPOCH": "2025-11-11T06:43:41.229984",
    "MEAN_MOTION": 15.06409792,
    "ECCENTRICITY": 0.0001676,
    "INCLINATION": 53.0545,
    "RA_OF_ASC_NODE": 268.186,
    "ARG_OF_PERICENTER": 91.9701,
    "MEAN_ANOMALY": 268.148,
    "EPHEMERIS_TYPE": 0,
    "CLASSIFICATION_TYPE": "U",
    "NORAD_CAT_ID": 48581,
    "ELEMENT_SET_NO": 999,
    "REV_AT_EPOCH": 24785,
    "BSTAR": 0.00051096,
    "MEAN_MOTION_DOT": 7.339e-05,
    "MEAN_MOTION_DDOT": 0.0,
    "TLE_LINE1": "1 48581U 21041AE  25315.28033831  .00007339  00000+0  51096-3 0  9993",
    "TLE_LINE2": "2 48581  53.0545 268.1860 0001676  91.9701 268.1480 15.06409792247856",
    "COMMENT": "Grouped by shell and plane from TLE"
  },
  {
    "OBJECT_NAME": "STARLINK-2236",
    "OBJECT_ID": "21041AF",
    "EPOCH": "2025-11-11T04:41:38.062752",
    "MEAN_MOTION": 15.06394405,
    "ECCENTRICITY": 0.0001291,
    "INCLINATION": 53.0548,
    "RA_OF_ASC_NODE": 268.7203,
    "ARG_OF_PERICENTER": 89.7732,
    "MEAN_ANOMALY": 270.3405,
    "EPHEMERIS_TYPE": 0,
    "CLASSIFICATION_TYPE": "U",
    "NORAD_CAT_ID": 48582,
    "ELEMENT_SET_NO": 999,
    "REV_AT_EPOCH": 24783,
    "BSTAR": 0.00017402000000000002,
    "MEAN_MOTION_DOT": 2.311e-05,
    "MEAN_MOTION_DDOT": 0.0,
    "TLE_LINE1": "1 48582U 21041AF  25315.19557943  .00002311  00000+0  17402-3 0  9997",
    "TLE_LINE2": "2 48582  53.0548 268.7203 0001291  89.7732 270.3405 15.06394405247833",
    "COMMENT": "Grouped by shell and plane from TLE"
  },
  {
    "OBJECT_NAME": "STARLINK-2753",
    "OBJECT_ID": "21044BL",
    "EPOCH": "2025-11-11T06:47:00.277440",
    "MEAN_MOTION": 15.06401326,
    "ECCENTRICITY": 0.0001537,
    "INCLINATION": 53.0543,
    "RA_OF_ASC_NODE": 263.2131,
    "ARG_OF_PERICENTER": 100.6106,
    "MEAN_ANOMALY": 259.5056,
    "EPHEMERIS_TYPE": 0,
    "CLASSIFICATION_TYPE": "U",
    "NORAD_CAT_ID": 48696,
    "ELEMENT_SET_NO": 999,
    "REV_AT_EPOCH": 24628,
    "BSTAR": 0.0003217,
    "MEAN_MOTION_DOT": 4.514e-05,
    "MEAN_MOTION_DDOT": 0.0,
    "TLE_LINE1": "1 48696U 21044BL  25315.28264210  .00004514  00000+0  32170-3 0  9994",
    "TLE_LINE2": "2 48696  53.0543 263.2131 0001537 100.6106 259.5056 15.06401326246285",
    "COMMENT": "Grouped by shell and plane from TLE"
  },
  {
    "OBJECT_NAME": "STARLINK-3712",
    "OBJECT_ID": "22029C",
    "EPOCH": "2025-11-11T05:50:27.530016",
    "MEAN_MOTION": 15.08869509,
    "ECCENTRICITY": 0.0001463,
    "INCLINATION": 53.2172,
    "RA_OF_ASC_NODE": 260.8472,
    "ARG_OF_PERICENTER": 84.4808,
    "MEAN_ANOMALY": 275.6351,
    "EPHEMERIS_TYPE": 0,
    "CLASSIFICATION_TYPE": "U",
    "NORAD_CAT_ID": 52090,
    "ELEMENT_SET_NO": 999,
    "REV_AT_EPOCH": 20277,
    "BSTAR": 0.00035568,
    "MEAN_MOTION_DOT": 5.382e-05,
    "MEAN_MOTION_DDOT": 0.0,
    "TLE_LINE1": "1 52090U 22029C   25315.24337419  .00005382  00000+0  35568-3 0  9997",
    "TLE_LINE2": "2 52090  53.2172 260.8472 0001463  84.4808 275.6351 15.08869509202771",
    "COMMENT": "Grouped by shell and plane from TLE"
  },
  {
    "OBJECT_NAME": "STARLINK-3716",
    "OBJECT_ID": "22029E",
    "EPOCH": "2025-11-11T05:55:46.867872",
    "MEAN_MOTION": 15.08850919,
    "ECCENTRICITY": 0.0001079,
    "INCLINATION": 53.2189,
    "RA_OF_ASC_NODE": 260.8311,
    "ARG_OF_PERICENTER": 116.4012,
    "MEAN_ANOMALY": 243.7091,
    "EPHEMERIS_TYPE": 0,
    "CLASSIFICATION_TYPE": "U",
    "NORAD_CAT_ID": 52092,
    "ELEMENT_SET_NO": 999,
    "REV_AT_EPOCH": 20277,
    "BSTAR": 0.00044511,
    "MEAN_MOTION_DOT": 6.805e-05,
    "MEAN_MOTION_DDOT": 0.0,
    "TLE_LINE1": "1 52092U 22029E   25315.24707023  .00006805  00000+0  44511-3 0  9990",
    "TLE_LINE2": "2 52092  53.2189 260.8311 0001079 116.4012 243.7091 15.08850919202771",
    "COMMENT": "Grouped by shell and plane from TLE"
  },
  {
    "OBJECT_NAME": "STARLINK-3673",
    "OBJECT_ID": "22029F",
    "EPOCH": "2025-11-11T05:41:16.359360",
    "MEAN_MOTION": 15.08837264,
    "ECCENTRICITY": 0.0001446,
    "INCLINATION": 53.218,
    "RA_OF_ASC_NODE": 260.8786,
    "ARG_OF_PERICENTER": 80.8816,
    "MEAN_ANOMALY": 279.234,
    "EPHEMERIS_TYPE": 0,
    "CLASSIFICATION_TYPE": "U",
    "NORAD_CAT_ID": 52093,
    "ELEMENT_SET_NO": 999,
    "REV_AT_EPOCH": 20277,
    "BSTAR": 9.8578e-05,
    "MEAN_MOTION_DOT": 1.281e-05,
    "MEAN_MOTION_DDOT": 0.0,
    "TLE_LINE1": "1 52093U 22029F   25315.23699490  .00001281  00000+0  98578-4 0  9994",
    "TLE_LINE2": "2 52093  53.2180 260.8786 0001446  80.8816 279.2340 15.08837264202772",
    "COMMENT": "Grouped by shell and plane from TLE"
  },
  {
    "OBJECT_NAME": "STARLINK-3714",
    "OBJECT_ID": "22029G",
    "EPOCH": "2025-11-11T05:45:11.048544",
    "MEAN_MOTION": 15.08842726,
    "ECCENTRICITY": 0.00014,
    "INCLINATION": 53.2171,
    "RA_OF_ASC_NODE": 260.8621,
    "ARG_OF_PERICENTER": 90.9284,
    "MEAN_ANOMALY": 269.1868,
    "EPHEMERIS_TYPE": 0,
    "CLASSIFICATION_TYPE": "U",
    "NORAD_CAT_ID": 52094,
    "ELEMENT_SET_NO": 999,
    "REV_AT_EPOCH": 20277,
    "BSTAR": 0.00020601000000000001,
    "MEAN_MOTION_DOT": 2.993e-05,
    "MEAN_MOTION_DDOT": 0.0,
    "TLE_LINE1": "1 52094U 22029G   25315.23971121  .00002993  00000+0  20601-3 0  9991",
    "TLE_LINE2": "2 52094  53.2171 260.8621 0001400  90.9284 269.1868 15.08842726202774",
    "COMMENT": "Grouped by shell and plane from TLE"
  },
  {
    "OBJECT_NAME": "STARLINK-3701",
    "OBJECT_ID": "22029H",
    "EPOCH": "2025-11-11T05:29:18.061728",
    "MEAN_MOTION": 15.08873936,
    "ECCENTRICITY": 0.0001199,
    "INCLINATION": 53.2174,
    "RA_OF_ASC_NODE": 260.9124,
    "ARG_OF_PERICENTER": 88.4651,
    "MEAN_ANOMALY": 271.6479,
    "EPHEMERIS_TYPE": 0,
    "CLASSIFICATION_TYPE": "U",
    "NORAD_CAT_ID": 52095,
    "ELEMENT_SET_NO": 999,
    "REV_AT_EPOCH": 20277,
    "BSTAR": 0.0009149000000000001,
    "MEAN_MOTION_DOT": 0.00014316,
    "MEAN_MOTION_DDOT": 0.0,
    "TLE_LINE1": "1 52095U 22029H   25315.22868127  .00014316  00000+0  91490-3 0  9998",
    "TLE_LINE2": "2 52095  53.2174 260.9124 0001199  88.4651 271.6479 15.08873936202775",
    "COMMENT": "Grouped by shell and plane from TLE"
  },
  {
    "OBJECT_NAME": "STARLINK-3665",
    "OBJECT_ID": "22029L",
    "EPOCH": "2025-11-11T05:34:35.345856",
    "MEAN_MOTION": 15.08844492,
    "ECCENTRICITY": 0.0001432,
    "INCLINATION": 53.2183,
    "RA_OF_ASC_NODE": 260.8953,
    "ARG_OF_PERICENTER": 96.8468,
    "MEAN_ANOMALY": 263.2687,
    "EPHEMERIS_TYPE": 0,
    "CLASSIFICATION_TYPE": "U",
    "NORAD_CAT_ID": 52098,
    "ELEMENT_SET_NO": 999,
    "REV_AT_EPOCH": 20277,
    "BSTAR": 0.00010377,
    "MEAN_MOTION_DOT": 1.364e-05,
    "MEAN_MOTION_DDOT": 0.0,
    "TLE_LINE1": "1 52098U 22029L   25315.23235354  .00001364  00000+0  10377-3 0  9996",
    "TLE_LINE2": "2 52098  53.2183 260.8953 0001432  96.8468 263.2687 15.08844492202779",
    "COMMENT": "Grouped by shell and plane from TLE"
  },
  {
    "OBJECT_NAME": "STARLINK-3702",
    "OBJECT_ID": "22029N",
    "EPOCH": "2025-11-11T05:23:59.941248",
    "MEAN_MOTION": 15.08845243,
    "ECCENTRICITY": 0.0001564,
    "INCLINATION": 53.2175,
    "RA_OF_ASC_NODE": 260.9303,
    "ARG_OF_PERICENTER": 112.2183,
    "MEAN_ANOMALY": 247.8975,
    "EPHEMERIS_TYPE": 0,
    "CLASSIFICATION_TYPE": "U",
    "NORAD_CAT_ID": 52100,
    "ELEMENT_SET_NO": 999,
    "REV_AT_EPOCH": 20277,
    "BSTAR": 0.00021584000000000002,
    "MEAN_MOTION_DOT": 3.149e-05,
    "MEAN_MOTION_DDOT": 0.0,
    "TLE_LINE1": "1 52100U 22029N   25315.22499932  .00003149  00000+0  21584-3 0  9998",
    "TLE_LINE2": "2 52100  53.2175 260.9303 0001564 112.2183 247.8975 15.08845243202770",
    "COMMENT": "Grouped by shell and plane from TLE"
  },
  {
    "OBJECT_NAME": "STARLINK-3703",
    "OBJECT_ID": "22029P",
    "EPOCH": "2025-11-11T05:39:56.181024",
    "MEAN_MOTION": 15.088466,
    "ECCENTRICITY": 0.0001527,
    "INCLINATION": 53.2184,
    "RA_OF_ASC_NODE": 261.0733,
    "ARG_OF_PERICENTER": 98.2712,
    "MEAN_ANOMALY": 261.8453,
    "EPHEMERIS_TYPE": 0,
    "CLASSIFICATION_TYPE": "U",
    "NORAD_CAT_ID": 52101,
    "ELEMENT_SET_NO": 999,
    "REV_AT_EPOCH": 20276,
    "BSTAR": 0.00017718,
    "MEAN_MOTION_DOT": 2.533e-05,
    "MEAN_MOTION_DDOT": 0.0,
    "TLE_LINE1": "1 52101U 22029P   25315.23606691  .00002533  00000+0  17718-3 0  9992",
    "TLE_LINE2": "2 52101  53.2184 261.0733 0001527  98.2712 261.8453 15.08846600202764",
    "COMMENT": "Grouped by shell and plane from TLE"
  },
  {
    "OBJECT_NAME": "STARLINK-3670",
    "OBJECT_ID": "22029U",
    "EPOCH": "2025-11-11T06:43:29.364672",
    "MEAN_MOTION": 15.08835497,
    "ECCENTRICITY": 0.000141,
    "INCLINATION": 53.2167,
    "RA_OF_ASC_NODE": 260.6785,
    "ARG_OF_PERICENTER": 79.3495,
    "MEAN_ANOMALY": 280.7656,
    "EPHEMERIS_TYPE": 0,
    "CLASSIFICATION_TYPE": "U",
    "NORAD_CAT_ID": 52106,
    "ELEMENT_SET_NO": 999,
    "REV_AT_EPOCH": 20277,
    "BSTAR": 0.0,
    "MEAN_MOTION_DOT": -7.27e-06,
    "MEAN_MOTION_DDOT": 0.0,
    "TLE_LINE1": "1 52106U 22029U   25315.28020098 -.00000727  00000+0 -27609-4 0  9999",
    "TLE_LINE2": "2 52106  53.2167 260.6785 0001410  79.3495 280.7656 15.08835497202779",
    "COMMENT": "Grouped by shell and plane from TLE"
  },
  {
    "OBJECT_NAME": "STARLINK-3564",
    "OBJECT_ID": "22041AT",
    "EPOCH": "2025-11-11T06:38:10.463136",
    "MEAN_MOTION": 15.08847141,
    "ECCENTRICITY": 0.0001357,
    "INCLINATION": 53.2168,
    "RA_OF_ASC_NODE": 260.6978,
    "ARG_OF_PERICENTER": 87.2324,
    "MEAN_ANOMALY": 272.8823,
    "EPHEMERIS_TYPE": 0,
    "CLASSIFICATION_TYPE": "U",
    "NORAD_CAT_ID": 52302,
    "ELEMENT_SET_NO": 999,
    "REV_AT_EPOCH": 19676,
    "BSTAR": 0.00011433999999999999,
    "MEAN_MOTION_DOT": 1.533e-05,
    "MEAN_MOTION_DDOT": 0.0,
    "TLE_LINE1": "1 52302U 22041AT  25315.27650999  .00001533  00000+0  11434-3 0  9991",
    "TLE_LINE2": "2 52302  53.2168 260.6978 0001357  87.2324 272.8823 15.08847141196769",
    "COMMENT": "Grouped by shell and plane from TLE"
  }
]